SYRACUSE 4B             
1 57214U 23093B   26183.72387931 -.00000043  00000+0  00000+0 0  9992
2 57214   0.0187  44.7024 0000279 131.5119 358.6772  1.00271030  7129
JUPITER 3 (ECHOSTAR 24) 
1 57479U 23108A   26183.48530158  .00000000  00000+0  00000+0 0  9998
2 57479   0.0232  29.2689 0001162  65.2078 265.5365  1.00268982 10790
GALAXY 37 (G-37)        
1 57493U 23112A   26185.76730301  .00000000  00000+0  00000+0 0  9994
2 57493   0.0201  30.4834 0001914  81.9198 319.6004  1.00270417 10710
LUDI TANCE-4 01A        
1 57624U 23120A   26185.84197102 -.00000160  00000+0  00000+0 0  9992
2 57624  15.0931 193.5356 0001521  24.9660  96.9123  1.00265953 10724
TJS-10                  
1 58204U 23169A   26183.75054780 -.00000239  00000+0  00000+0 0  9999
2 58204   2.5821  80.3140 0004215 104.6482  98.4495  1.00269643  9696
ZHONGXING-6E            
1 58253U 23172A   26185.95797382  .00000000  00000+0  00000+0 0  9998
2 58253   0.0118  23.3503 0002365  83.1994 276.8076  1.00266905  9836
YAOGAN-41               
1 58582U 23197A   26185.95944715 -.00000348  00000+0  00000+0 0  9990
2 58582   3.0976 313.3951 0014381 196.8094 241.3745  1.00271887  9508
OVZON-3                 
1 58698U 24003A   26183.85094208  .00000062  00000+0  00000+0 0  9997
2 58698   0.0105  70.1871 0000389 318.3652 258.3697  1.00272523  7601
INSAT-3DS               
1 58990U 24033A   26185.80880649 -.00000143  00000+0  00000+0 0  9995
2 58990   0.0762  96.1964 0001235  13.6104 186.2343  1.00273232 47243
MERAH PUTIH 2           
1 58995U 24035A   26183.82252698  .00000000  00000+0  00000+0 0  9990
2 58995   0.0148  17.3979 0001254  72.7360 239.7841  1.00266597  8743
HULIANWAN GAOGUI-01 (H*)
1 59069U 24040A   26185.44264698  .00000168  00000+0  00000+0 0  9997
2 59069   0.0724 329.6733 0002681  74.6592  71.1112  1.00274910  7506
EUTELSAT 36D            
1 59346U 24059A   26185.93524708  .00000000  00000+0  00000+0 0  9995
2 59346   0.0206  46.1949 0000270 130.2870 118.9938  1.00270921  8324
PAKSAT-MM1              
1 59915U 24104A   26185.87703868  .00000166  00000+0  00000+0 0  9990
2 59915   0.0357 191.7396 0002315 250.2080 194.9028  1.00275847  7701
ASTRA 1P (SES-24)       
1 60086U 24115A   26183.74202802  .00000131  00000+0  00000+0 0  9991
2 60086   0.0604 342.3847 0000445 177.5391  47.2003  1.00270842  7354
GOES 19                 
1 60133U 24119A   26185.84893336 -.00000235  00000+0  00000+0 0  9995
2 60133   0.0081 177.0624 0000570 357.0942 339.1148  1.00270089  7141
ZHONGXING-3A            
1 60179U 24122A   26182.60462942 -.00000304  00000+0  00000+0 0  9992
2 60179   0.0347 112.7027 0001711  13.4089 112.7870  1.00276406  7452
TURKSAT 6A              
1 60233U 24127A   26185.88037142  .00000000  00000+0  00000+0 0  9993
2 60233   0.0145 191.6112 0002781 323.8327 126.3671  1.00270642  7198
HULIANWAN GAOGUI-02 (H*)
1 60327U 24135A   26185.75135626 -.00000170  00000+0  00000+0 0  9997
2 60327   0.0454 350.6232 0007982   2.8010 352.8436  1.00231145  7679
ZHONGXING-4A            
1 60606U 24151A   26185.88308375 -.00000349  00000+0  00000+0 0  9990
2 60606   1.2712 270.5941 0000235 199.0794 249.3443  1.00273656  6937
HULIANWAN GAOGUI-03 (H*)
1 61503U 24181A   26185.84858669 -.00000228  00000+0  00000+0 0  9998
2 61503   0.0481 353.5592 0001338 106.0614  51.6047  1.00269839  7003
DSN-3 (KIRAMEKI-3)      
1 61733U 24198A   26183.85803260 -.00000239  00000+0  00000+0 0  9999
2 61733   0.0195  25.1617 0000988  91.9857 256.7025  1.00271811  6074
KOREASAT 6A             
1 61910U 24206A   26185.89419637 -.00000349  00000+0  00000+0 0  9995
2 61910   0.0230  99.6328 0001029 339.9270 281.2528  1.00273446  6018
OPTUS-X (ADS-01)        
1 62006U 24212A   26185.89480360 -.00000130  00000+0  00000+0 0  9998
2 62006   0.0161 307.7028 0002416 195.3572 258.3801  1.00271706  5934
GSAT-N2 (GSAT-20)       
1 62028U 24214A   26185.90268432 -.00000007  00000+0  00000+0 0  9993
2 62028   0.0742  97.1741 0002030 359.2640 219.3977  1.00272964  6078
SXM-9                   
1 62259U 24234A   26185.13401792 -.00000194  00000+0  00000+0 0  9991
2 62259   0.0183 329.9630 0005157 350.5629 284.7233  1.00277558  5748
TJS-12                  
1 62374U 24246A   26185.89281027 -.00000218  00000+0  00000+0 0  9999
2 62374   0.6339 300.8280 0002104 104.0797 345.9618  1.00272436  5748
NUVIEW ALPHA            
1 62455U 24252B   26183.42355127 -.00000205  00000+0  00000+0 0  9992
2 62455   0.0500  33.1616 0001093  43.1718 273.4976  1.00271006  3970
AGILA                   
1 62456U 24252C   26183.86135470 -.00000171  00000+0  00000+0 0  9990
2 62456   0.0622 123.0682 0001075 359.6550 260.4177  1.00271235  5310
NUVIEW BRAVO            
1 62457U 24252D   26183.42355127 -.00000204  00000+0  00000+0 0  9993
2 62457   0.0714 158.3856 0001692 340.3431 211.1034  1.00271680  3943
THURAYA-4               
1 62483U 25001A   26184.94587436  .00000151  00000+0  00000+0 0  9993
2 62483   0.0204  68.0357 0000159  38.6779 200.0629  1.00272723  4349
SHIJIAN-25 (SJ-25)      
1 62485U 25002A   26183.76460027 -.00000341  00000+0  00000+0 0  9993
2 62485   5.1479  61.0664 0051630 174.7980  87.5189  1.00272141  5514
